# TLE Lines for Satellites That Will Generate Alerts
# These satellites have close orbital parameters that may cause conjunction alerts

# Starlink satellites (close orbital planes)
1 44713U 19074A   24300.50000000  .00000000  00000+0  00000+0 0  9990
2 44713  53.0000 120.0000 0001000 270.0000  90.0000 15.10000000 12345

1 44714U 19074B   24300.50000000  .00000000  00000+0  00000+0 0  9991
2 44714  53.0000 120.1000 0001000 270.0000  90.0000 15.10000000 12346

# Debris objects (high collision risk)
1 25544U 98067A   24300.50000000  .00016717  00000+0  10270-3 0  9005
2 25544  51.6400 208.9163 0006317  69.9862 320.6634 15.50192628473224

1 25544U 98067B   24300.50000000  .00016717  00000+0  10270-3 0  9006
2 25544  51.6400 208.9163 0006317  69.9862 320.6634 15.50192628473224

# Close approach satellites (similar altitudes)
1 25544U 98067C   24300.50000000  .00016717  00000+0  10270-3 0  9007
2 25544  51.6400 208.9163 0006317  69.9862 320.6634 15.50192628473224

1 25544U 98067D   24300.50000000  .00016717  00000+0  10270-3 0  9008
2 25544  51.6400 208.9163 0006317  69.9862 320.6634 15.50192628473224

# High collision probability satellites
1 25544U 98067E   24300.50000000  .00016717  00000+0  10270-3 0  9009
2 25544  51.6400 208.9163 0006317  69.9862 320.6634 15.50192628473224

1 25544U 98067F   24300.50000000  .00016717  00000+0  10270-3 0  9010
2 25544  51.6400 208.9163 0006317  69.9862 320.6634 15.50192628473224

# Debris with high collision risk
1 25544U 98067G   24300.50000000  .00016717  00000+0  10270-3 0  9011
2 25544  51.6400 208.9163 0006317  69.9862 320.6634 15.50192628473224

1 25544U 98067H   24300.50000000  .00016717  00000+0  10270-3 0  9012
2 25544  51.6400 208.9163 0006317  69.9862 320.6634 15.50192628473224

# Instructions:
# 1. Copy these TLE lines
# 2. Add them as satellites in Mission Control
# 3. The system will generate alerts due to close orbital parameters
# 4. These satellites have similar altitudes and inclinations, increasing collision risk
